GLOBALSTAR M023 [+]     
1 25621U 99004A   23320.63815927 -.00000053  00000+0  27988-3 0  9994
2 25621  52.0133  15.0379 0009426 286.4540 239.4856 12.62448636142654
GLOBALSTAR M040 [-]     
1 25622U 99004B   23320.94601858 -.00000062  00000+0  23492-3 0  9991
2 25622  51.9944  17.4115 0000726 174.1611 358.0777 12.61959434142240
GLOBALSTAR M036 [-]     
1 25623U 99004C   23320.77160035  .00000020  00000+0  15039-2 0  9990
2 25623  51.9982 324.8353 0011249  26.5124 144.0032 11.86560287110313
GLOBALSTAR M038 [-]     
1 25624U 99004D   23320.94809328 -.00000067  00000+0  22829-3 0  9993
2 25624  51.9978 296.7740 0001614 303.6127  91.6212 12.32487912131071
GLOBALSTAR M022 [-]     
1 25649U 99012A   23320.27755275 -.00000071  00000+0  18629-3 0  9994
2 25649  52.0047  64.6008 0003412 108.3306 266.8508 12.02472109106731
GLOBALSTAR M041 [-]     
1 25650U 99012B   23320.36938966 -.00000041  00000+0  57518-3 0  9993
2 25650  52.0024 288.1599 0001623 265.8753  94.1898 11.96647757108981
GLOBALSTAR M046 [-]     
1 25651U 99012C   23320.91677784 -.00000180  00000+0 -10069-2 0  9997
2 25651  52.0081  34.1054 0002549 168.7472   3.3898 12.09379431113699
GLOBALSTAR M037 [+]     
1 25652U 99012D   23320.04042906 -.00000065  00000+0  21664-3 0  9999
2 25652  51.9980 147.6999 0001877  19.4329 158.4669 12.62388995138127
